SPACEBEE-138            
1 52166U 22033K   22338.17630280  .00016920  00000+0  61098-3 0  9999
2 52166  97.3720  57.2259 0010501 127.4311 232.7886 15.28503794 37556
SPACEBEE-130            
1 52176U 22033V   22338.48890135  .00016922  00000+0  60744-3 0  9990
2 52176  97.3706  57.5266 0007518 129.1923 230.9985 15.28723016 37601
SPACEBEE-139            
1 52177U 22033W   22338.50314058  .00016913  00000+0  62113-3 0  9991
2 52177  97.3725  57.4087 0010147 132.2657 227.9445 15.27950879 37597
SPACEBEE-129            
1 52179U 22033Y   22338.18651996  .00016019  00000+0  59177-3 0  9995
2 52179  97.3708  57.0261 0008970 135.4515 224.7447 15.27780113 37543
SPACEBEE-134            
1 52180U 22033Z   22338.22117291  .00015167  00000+0  56820-3 0  9992
2 52180  97.3699  56.9704 0009191 135.2880 224.9101 15.27327348 37549
SPACEBEE-131            
1 52181U 22033AA  22338.49813265  .00016048  00000+0  59103-3 0  9992
2 52181  97.3710  57.3796 0009065 135.3663 224.8308 15.27880258 37597
SPACEBEE-128            
1 52182U 22033AB  22338.44301491  .00015411  00000+0  56917-3 0  9994
2 52182  97.3734  57.3498 0009291 134.3262 225.8740 15.27794264 37589
SPACEBEE-133            
1 52183U 22033AC  22338.23264454  .00015619  00000+0  57482-3 0  9997
2 52183  97.3713  57.1286 0009123 135.7382 224.4589 15.27908229 37542
SPACEBEE-132            
1 52185U 22033AE  22338.19567288  .00015769  00000+0  57207-3 0  9996
2 52185  97.3717  57.1947 0008584 146.9175 213.2603 15.28382664 37550
SPACEBEE-137            
1 52186U 22033AF  22338.44291865  .00016382  00000+0  60527-3 0  9991
2 52186  97.3715  57.3139 0009340 134.2590 225.9417 15.27766829 37580
SPACEBEE-135            
1 52187U 22033AG  22338.19469402  .00016014  00000+0  58101-3 0  9995
2 52187  97.3725  57.2159 0008617 132.1569 228.0404 15.28376875 37558
SPACEBEE-143            
1 52394U 22047A   22338.18908029  .00009193  00000+0  47344-3 0  9999
2 52394  97.4413  59.5244 0007105 312.1978  47.8651 15.16599174 34046
SPACEBEENZ-15           
1 52395U 22047B   22338.22263029  .00011034  00000+0  54466-3 0  9999
2 52395  97.4411  59.7783 0006975 308.3753  51.6854 15.18039626 34060
SPACEBEENZ-16           
1 52396U 22047C   22338.22336299  .00011177  00000+0  55212-3 0  9998
2 52396  97.4414  59.7774 0006897 308.8423  51.2195 15.18012068 34061
SPACEBEENZ-17           
1 52397U 22047D   22338.22734590  .00011277  00000+0  55787-3 0  9993
2 52397  97.4415  59.7730 0006999 309.0097  51.0513 15.17958586 34063
SPACEBEENZ-18           
1 52398U 22047E   22338.49209676  .00011121  00000+0  55024-3 0  9997
2 52398  97.4415  60.0308 0006913 307.6268  52.4338 15.17955995 34106
SPACEBEE-140            
1 52399U 22047F   22338.46843128  .00009735  00000+0  49170-3 0  9994
2 52399  97.4414  59.9147 0007048 308.1223  51.9375 15.17268003 34114
SPACEBEE-141            
1 52400U 22047G   22338.50254054  .00009086  00000+0  46613-3 0  9994
2 52400  97.4416  59.8703 0007095 308.5435  51.5162 15.16739988 34098
SPACEBEE-142            
1 52401U 22047H   22338.18865006  .00008634  00000+0  44548-3 0  9997
2 52401  97.4411  59.5201 0007008 311.2367  48.8261 15.16553529 34042
SPACEBEENZ-20           
1 52402U 22047J   22338.17232175  .00011716  00000+0  58070-3 0  9992
2 52402  97.4409  59.6749 0007741 311.9488  48.1085 15.17876445 34057
SPACEBEENZ-22           
1 52403U 22047K   22338.18387605  .00011341  00000+0  56556-3 0  9994
2 52403  97.4406  59.6605 0007816 311.7789  48.2776 15.17669145 34056
SPACEBEENZ-19           
1 52404U 22047L   22338.49846742  .00012042  00000+0  59586-3 0  9996
2 52404  97.4410  60.0052 0007714 310.9738  49.0828 15.17926730 34105
SPACEBEENZ-21           
1 52405U 22047M   22338.50471088  .00011550  00000+0  57333-3 0  9997
2 52405  97.4407  59.9965 0007756 310.6834  49.3725 15.17826887 34103
SPACEBEE-148            
1 52406U 22047N   22338.21635175  .00009292  00000+0  47080-3 0  9993
2 52406  97.4409  59.6213 0007683 312.6527  47.4059 15.17167086 34051
SPACEBEE-149            
1 52407U 22047P   22338.45857707  .00009646  00000+0  49566-3 0  9991
2 52407  97.4406  59.7509 0007806 312.3931  47.6641 15.16659756 34082
SPACEBEE-153            
1 52408U 22047Q   22338.22754489  .00008800  00000+0  44905-3 0  9993
2 52408  97.4442  59.6875 0008026 325.7741  34.2974 15.16933517 34058
SPACEBEE-150            
1 52409U 22047R   22338.19005455  .00008766  00000+0  45175-3 0  9993
2 52409  97.4407  59.5046 0007867 313.7270  46.3311 15.16587806 34049
SPACEBEE-144            
1 52410U 22047S   22338.45224170  .00008947  00000+0  46096-3 0  9995
2 52410  97.4415  59.7851 0007144 312.1079  47.9547 15.16594398 34080
SPACEBEE-145            
1 52411U 22047T   22338.45938286  .00008890  00000+0  45870-3 0  9992
2 52411  97.4413  59.7723 0007076 312.3970  47.6664 15.16544528 34080
SPACEBEE-146            
1 52412U 22047U   22338.47874092  .00009618  00000+0  49762-3 0  9992
2 52412  97.4411  59.7369 0007002 314.5065  45.5596 15.16425901 34087
SPACEBEE-151            
1 52413U 22047V   22338.46197181  .00008741  00000+0  45139-3 0  9999
2 52413  97.4407  59.7510 0007766 314.1519  45.9075 15.16514368 34080
SPACEBEE-152            
1 52414U 22047W   22338.21104804  .00007879  00000+0  40860-3 0  9990
2 52414  97.4405  59.4688 0007728 315.4321  44.6290 15.16399548 34047
SPACEBEE-147            
1 52415U 22047X   22338.46954354  .00007547  00000+0  39113-3 0  9992
2 52415  97.4416  59.7624 0007069 314.8266  45.2392 15.16442322 34085
SPACEBEE-155            
1 52416U 22047Y   22338.50760445  .00008781  00000+0  46152-3 0  9996
2 52416  97.4397  59.6734 0008332 317.3163  42.7421 15.15887391 34086
SPACEBEE-154            
1 52417U 22047Z   22338.48214573  .00008331  00000+0  43260-3 0  9998
2 52417  97.4408  59.7231 0007607 316.5325  43.5308 15.16335749 34087
